269P/Jedicke,e,7.0713,241.7053,225.9108,7.078525,0.0523347,0.43039961,121.3208,02/03.0/2021,2000,g 10.0,4.0
# From MPC 88332
270P/Gehrels,e,2.9187,222.9712,209.8624,6.667187,0.0572519,0.46721014,160.2031,02/03.0/2021,2000,g  8.0,4.0
# From MPC 92277
271P/van Houten-Lemmon,e,6.8686,9.3039,36.4207,7.045424,0.0527040,0.39384744,145.6811,02/03.0/2021,2000,g 11.0,4.0
# From MPC 81862
272P/NEAT,e,18.0762,109.4660,27.9564,4.455780,0.1047897,0.45424172,304.5372,02/03.0/2021,2000,g 16.0,2.0
# From MPC 82723
273P/Pons-Gambart,e,136.7883,320.4009,20.3206,31.78408,0.0055003,0.97407710,0.0000,12/17.7296/2012,2000,g 11.5,4.0
# From MPC 88332
274P/Tombaugh-Tenagra,e,15.8176,81.3382,38.4971,4.371999,0.1078162,0.43890563,313.6824,02/03.0/2021,2000,g 13.0,4.0
# From MPC 81862
275P/Hermann,e,21.2765,348.7574,174.0806,5.772306,0.0710690,0.71240969,210.7928,02/03.0/2021,2000,g 17.0,4.0
# From MPEC 2020-K19
276P/Vorobjov,e,14.8134,211.4123,199.7968,5.315574,0.0804227,0.26720147,246.4123,02/03.0/2021,2000,g 11.5,4.0
# From MPEC 2021-BE3
277P/LINEAR,e,16.7789,276.3448,152.3172,3.852456,0.1303460,0.50564231,4.5396,02/03.0/2021,2000,g 14.0,4.0
# From MPEC 2020-W26
278P/McNaught,e,6.6851,15.4304,238.0992,3.695931,0.1387134,0.43534067,19.9654,02/03.0/2021,2000,g 14.0,4.0
# From MPC100285
279P/La Sagra,e,5.0523,346.2309,5.7740,3.574755,0.1458259,0.39833714,242.5169,02/03.0/2021,2000,g 14.0,4.0
# From MPC 89013
280P/Larsen,e,11.7753,131.3929,104.8010,4.529219,0.1022514,0.41777807,266.6957,02/03.0/2021,2000,g 12.5,4.0
# From MPC 83145
281P/MOSS,e,4.7196,87.1751,26.7922,4.870822,0.0916855,0.17173606,293.0890,02/03.0/2021,2000,g 11.0,4.0
# From MPC xxxxx
282P/,e,5.8109,9.2947,217.5897,4.243209,0.1127619,0.18903718,330.3032,02/03.0/2021,2000,g 13.5,2.0
# From MPEC 2021-BE3
283P/Spacewatch,e,14.4544,161.1303,22.2589,4.139681,0.1170183,0.48496480,334.6027,02/03.0/2021,2000,g 16.0,2.0
# From MPEC 2020-K19
284P/McNaught,e,11.8597,144.2663,202.5538,3.678641,0.1396925,0.37612086,328.9846,02/03.0/2021,2000,g 13.0,4.0
# From MPC 85339
285P/LINEAR,e,25.0340,185.4959,178.4113,4.508498,0.1029571,0.61828170,287.0526,02/03.0/2021,2000,g 15.0,4.0
# From MPC 90771
286P/Christensen,e,17.0449,283.9613,24.8072,4.109854,0.1182945,0.42533371,305.1649,02/03.0/2021,2000,g 14.0,4.0
# From MPC 96868
287P/Christensen,e,16.3198,139.0443,188.8925,4.166367,0.1158958,0.27082392,257.8804,02/03.0/2021,2000,g 13.5,4.0
# From MPC xxxxx
288P/,e,3.2399,83.1889,280.6169,3.048742,0.1851498,0.20138316,287.1792,02/03.0/2021,2000,g 16.0,2.0
# From MPC118844
289P/Blanpain,e,5.8943,68.8865,9.8743,3.047298,0.1852813,0.68540031,75.9703,02/03.0/2021,2000,g  2.5,4.0
# From MPC 95214
290P/Jager,e,20.2373,302.6846,181.9786,6.196737,0.0638939,0.63253483,162.6759,02/03.0/2021,2000,g 10.5,4.0
# From MPC 89314
291P/NEAT,e,6.3136,238.1149,173.8610,4.519014,0.1025979,0.43577990,275.6421,02/03.0/2021,2000,g 13.0,4.0
# From MPC115887
292P/Li,e,24.2573,90.9886,319.4552,6.108326,0.0652861,0.58805116,167.1891,02/03.0/2021,2000,g 12.5,4.0
# From MPEC 2021-BE3
293P/Spacewatch,e,9.0564,78.4108,41.0563,3.644177,0.1416788,0.41829457,6.4795,02/03.0/2021,2000,g 14.5,4.0
# From MPEC 2020-SI8
294P/LINEAR,e,18.2279,312.5918,235.4784,3.206132,0.1716849,0.59538281,73.9814,02/03.0/2021,2000,g 15.5,4.0
# From MPC 93589
295P/LINEAR,e,21.0733,7.4203,72.9210,5.306564,0.0806277,0.61606062,198.8247,02/03.0/2021,2000,g 12.0,4.0
# From MPEC 2020-SI8
296P/Garradd,e,25.2313,263.6361,350.1223,3.498228,0.1506371,0.47878206,20.8007,02/03.0/2021,2000,g 14.0,4.0
# From MPC102956
297P/Beshore,e,10.3286,97.6594,132.5015,3.442086,0.1543375,0.31918866,1.7182,02/03.0/2021,2000,g 15.0,4.0
# From MPC114609
298P/Christensen,e,7.8703,52.8226,100.6850,3.592369,0.1447547,0.38671437,21.6628,02/03.0/2021,2000,g 15.0,4.0
# From MPC101100
299P/Catalina-PANSTARRS,e,10.4758,271.6255,323.8990,4.384693,0.1073483,0.28164981,233.0384,02/03.0/2021,2000,g 11.5,4.0
# From MPC114609
300P/Catalina,e,5.6756,95.6632,222.8807,2.700041,0.2221512,0.69176786,182.9700,02/03.0/2021,2000,g 16.0,4.0
# From MPC 89014
301P/LINEAR-NEAT,e,10.3415,351.1769,193.7113,5.738484,0.0716982,0.58539946,168.5040,02/03.0/2021,2000,g 13.0,4.0
# From MPEC 2020-HN5
302P/Lemmon-PANSTARRS,e,6.0342,121.7551,208.2184,4.276646,0.1114421,0.23004599,193.6055,02/03.0/2021,2000,g 12.5,4.0
# From MPC 92278
303P/NEAT,e,7.0201,347.9704,356.8718,5.048137,0.0868975,0.51046988,199.9639,02/03.0/2021,2000,g 13.5,4.0
# From MPEC 2020-N08
304P/Ory,e,2.6067,58.9346,335.2311,3.150352,0.1762648,0.60048182,30.7744,02/03.0/2021,2000,g 16.5,4.0
# From MPC101100
305P/Skiff,e,11.6465,240.1221,147.2780,4.644359,0.0984726,0.69310587,223.7319,02/03.0/2021,2000,g 18.0,4.0
# From MPC 92278
306P/LINEAR,e,8.3108,341.3762,0.8302,3.122695,0.1786116,0.59328873,67.3544,02/03.0/2021,2000,g 19.0,4.0
# From MPC 92278
307P/LINEAR,e,4.4334,158.1449,222.1388,5.793557,0.0706783,0.67448869,158.0626,02/03.0/2021,2000,g 15.0,4.0
# From MPC109148
308P/Lagerkvist-Carsenty,e,4.8503,63.0917,333.5970,6.605322,0.0580581,0.36316549,121.9352,02/03.0/2021,2000,g 13.0,2.0
# From MPC 94284
309P/LINEAR,e,17.0232,10.1404,49.9666,4.371460,0.1078361,0.61760821,235.8864,02/03.0/2021,2000,g 15.0,4.0
# From MPC 98566
310P/Hill,e,13.1279,8.9252,31.8394,4.178113,0.1154074,0.42178145,245.2932,02/03.0/2021,2000,g 13.5,4.0
# From MPEC 2021-BE3
311P/PANSTARRS,e,4.9698,279.2278,144.5856,2.188803,0.3043646,0.11546251,36.0847,02/03.0/2021,2000,g 17.0,4.0
# From MPEC 2021-BE3
312P/NEAT,e,19.7684,144.6699,207.5337,3.466100,0.1527364,0.42780679,20.0085,02/03.0/2021,2000,g 16.0,4.0
# From MPEC 2021-BE3
313P/Gibbs,e,10.9831,105.9730,254.6603,3.162011,0.1752907,0.23494241,51.4721,02/03.0/2021,2000,g 15.0,4.0
# From MPC105243
314P/Montani,e,3.9795,267.6167,214.1669,7.271608,0.0502642,0.41604958,79.3521,02/03.0/2021,2000,g  9.5,4.0
# From MPC115888
315P/LONEOS,e,17.7751,68.9841,65.6783,4.939140,0.0897898,0.52179089,137.0257,02/03.0/2021,2000,g 11.0,4.0
# From MPC 92279
316P/LONEOS-Christensen,e,9.8563,246.6888,193.5309,4.357267,0.1083635,0.15821099,209.7847,02/03.0/2021,2000,g 13.5,4.0
# From MPEC 2020-C98
317P/WISE,e,11.9502,275.5168,334.9052,2.965484,0.1930015,0.57050406,25.0551,02/03.0/2021,2000,g 17.5,4.0
# From MPC102103
318P/McNaught-Hartley,e,17.8757,35.6079,313.1498,7.497543,0.0480093,0.67513605,92.5932,02/03.0/2021,2000,g  8.5,6.0
# From MPC 97499
319P/Catalina-McNaught,e,15.0951,111.3775,203.6404,3.567931,0.1462444,0.66659914,298.3694,02/03.0/2021,2000,g 15.0,4.0
# From MPC 96281
320P/McNaught,e,4.9089,295.9302,0.7760,3.094104,0.1810930,0.68576488,3.0529,02/03.0/2021,2000,g 20.5,4.0
# From MPC105243
321P/SOHO,e,20.0674,165.0292,172.7352,2.423311,0.2612705,0.98109263,0.0000,01/17.2808/2020,2000,g 20.0,4.0
# From MPC102103
322P/SOHO,e,11.4626,351.4885,56.9130,2.508073,0.2481384,0.97978916,0.0000,08/31.4547/2019,2000,g 19.0,4.0
# From MPEC 2016-Y36
323P/SOHO,e,5.3387,324.3751,353.0527,2.581987,0.2375598,0.98484273,0.0000,01/17.7618/2021,2000,g 20.0,4.0
# From MPC108598
324P/La Sagra,e,21.4103,270.6362,57.7348,3.097904,0.1807599,0.15475288,343.3247,02/03.0/2021,2000,g 13.0,4.0
# From MPC114609
325P/Yang-Gao,e,16.6963,257.5736,343.6875,3.523982,0.1489888,0.59360247,297.5550,02/03.0/2021,2000,g 14.0,4.0
# From MPC103849
326P/Hill,e,2.4708,99.8123,278.5857,4.063913,0.1203060,0.31754866,232.3578,02/03.0/2021,2000,g 13.5,4.0
# From MPC 97499
327P/Van Ness,e,36.2482,173.9784,185.0272,3.562527,0.1465773,0.56294229,275.4963,02/03.0/2021,2000,g 16.0,4.0
# From MPC109148
328P/LONEOS-Tucker,e,17.6712,341.6284,30.4813,4.195226,0.1147020,0.55192636,214.1736,02/03.0/2021,2000,g 14.5,4.0
# From MPC101101
329P/LINEAR-Catalina,e,21.6682,87.6799,343.5388,5.192096,0.0833086,0.67699462,157.6314,02/03.0/2021,2000,g 13.5,4.0
# From MPC105243
330P/Catalina,e,15.6941,293.0959,188.9819,6.630611,0.0577263,0.54842355,93.5919,02/03.0/2021,2000,g 12.0,4.0
# From MPEC 2021-BE3
331P/Gibbs,e,9.7390,216.7775,183.8123,3.003823,0.1893183,0.04081346,23.8638,02/03.0/2021,2000,g 12.0,4.0
# From MPEC 2016-K18
332P/Ikeya-Murakami,e,9.3799,3.7892,152.3510,3.088885,0.1815522,0.48945081,324.3363,02/03.0/2021,2000,g 18.0,4.0
# From MPEC 2016-EI8
332P-B/Ikeya-Murakami,e,9.3805,3.8028,152.3711,3.082329,0.1821317,0.48970701,359.9699,03/17.0/2016,2000,g 19.0,4.0
# From MPEC 2016-K18
332P-C/Ikeya-Murakami,e,9.3790,3.7896,152.3423,3.088851,0.1815552,0.48945626,324.3499,02/03.0/2021,2000,g 16.5,4.0
# From MPEC 2016-ED0
332P-D/Ikeya-Murakami,e,9.3761,3.7923,152.4393,3.081138,0.1822373,0.48977814,359.9486,03/17.0/2016,2000,g 19.0,4.0
# From MPEC 2016-ED0
332P-E/Ikeya-Murakami,e,9.3774,3.8228,152.2825,3.079877,0.1823493,0.48922008,359.9889,03/17.0/2016,2000,g 21.0,4.0
# From MPEC 2016-ED0
332P-F/Ikeya-Murakami,e,9.5293,3.4757,152.8203,3.163214,0.1751908,0.49918860,359.8501,03/17.0/2016,2000,g 21.0,4.0
# From MPEC 2016-ED0
332P-G/Ikeya-Murakami,e,9.2523,3.6955,154.4000,3.050519,0.1849880,0.49200362,359.9006,03/19.0/2016,2000,g 19.0,4.0
# From MPC100285
332P-H/Ikeya-Murakami,e,9.3795,3.7893,152.3430,3.089035,0.1815390,0.48949138,324.2880,02/03.0/2021,2000,g 19.0,4.0
# From MPEC 2016-ED0
332P-I/Ikeya-Murakami,e,9.3791,3.8048,152.3297,3.081767,0.1821815,0.48955490,359.9360,03/17.0/2016,2000,g 20.5,2.0
# From MPEC 2016-EI8
332P-J/Ikeya-Murakami,e,9.4296,3.6729,152.7712,3.115165,0.1792596,0.49429435,359.8613,03/17.0/2016,2000,g 20.5,2.0
# From MPEC 2020-L06
333P/LINEAR,e,131.9803,115.6256,26.0179,4.218955,0.1137357,0.73675327,201.2544,02/03.0/2021,2000,g 15.0,4.0
# From MPC115888
334P/NEAT,e,20.4479,90.6980,90.0163,6.838287,0.0551167,0.35226571,73.6534,02/03.0/2021,2000,g 10.5,4.0
# From MPC100285
335P/Gibbs,e,7.2931,330.8464,162.2488,3.578417,0.1456021,0.54562267,279.1692,02/03.0/2021,2000,g 17.0,4.0
# From MPC105244
336P/McNaught,e,17.8339,298.2275,308.7511,5.031599,0.0873263,0.44530593,127.6028,02/03.0/2021,2000,g 13.5,4.0
# From MPC115888
337P/WISE,e,15.3728,106.0709,160.9929,3.287429,0.1653558,0.49684191,275.1656,02/03.0/2021,2000,g 17.0,4.0
# From MPC104796
